[{"OBJECT_NAME":"STARLINK-30467","OBJECT_ID":"2023-146E","EPOCH":"2026-03-09T22:00:01.999584","MEAN_MOTION":15.12880838,"ECCENTRICITY":0.00023153,"INCLINATION":42.9991,"RA_OF_ASC_NODE":312.0737,"ARG_OF_PERICENTER":235.3451,"MEAN_ANOMALY":23.4393,"EPHEMERIS_TYPE":0,"CLASSIFICATION_TYPE":"U","NORAD_CAT_ID":57895,"ELEMENT_SET_NO":999,"REV_AT_EPOCH":547,"BSTAR":0.087923825,"MEAN_MOTION_DOT":0.01725536,"MEAN_MOTION_DDOT":0},{"OBJECT_NAME":"SIGI","OBJECT_ID":"2025-009Z","EPOCH":"2026-03-09T22:08:54.692736","MEAN_MOTION":15.23445824,"ECCENTRICITY":0.00019568,"INCLINATION":97.4047,"RA_OF_ASC_NODE":150.3738,"ARG_OF_PERICENTER":318.6476,"MEAN_ANOMALY":41.4612,"EPHEMERIS_TYPE":0,"CLASSIFICATION_TYPE":"U","NORAD_CAT_ID":62632,"ELEMENT_SET_NO":999,"REV_AT_EPOCH":6368,"BSTAR":0.00028660124,"MEAN_MOTION_DOT":6.759e-5,"MEAN_MOTION_DDOT":0}]
